     3.00           N                   E                   RINEX VERSION / TYPE
BRD_USR             ESA                 20190109 081702  UTCPGM / RUN BY / DATE
 GAL   4.8250E+01  8.5938E-02 -3.9368E-03  0.0000E+00       IONOSPHERIC CORR
GAUT  0.0000000000E+00 0.000000000E+00 259200 2035 GSTB   0 TIME SYSTEM CORR
GPGA -5.5297277868E-10 4.884981308E-15 259200 2035 GSTB   0 TIME SYSTEM CORR
                                                            END OF HEADER
E19 2019 01 09 05 40 00-9.265728294849E-06 2.984279490192E-13 0.000000000000E+00
     8.200000000000E+01 1.859375000000E+01 3.242992226500E-09 1.524140337763E-01
     7.767230272293E-07 1.309536164626E-04 9.682029485703E-06 5.440613571167E+03
     2.796000000000E+05 6.519258022308E-08 1.239736727828E+00 4.470348358154E-08
     9.581124866937E-01 1.328125000000E+02 2.354595911331E+00-5.503443526227E-09
     5.082354557610E-10 2.580000000000E+02 2.035000000000E+03 0.000000000000E+00
     3.120000000000E+00 0.000000000000E+00-8.614733815193E-09 0.000000000000E+00
     2.808000000000E+05 0.000000000000E+00 0.000000000000E+00 0.000000000000E+00
E21 2019 01 09 05 00 00-5.135226529092E-04-1.932676241267E-12 0.000000000000E+00
     7.800000000000E+01 6.040625000000E+01 2.480817621726E-09 1.029963773988E+00
     2.669170498848E-06 4.915974568576E-05 1.165084540844E-05 5.440632877350E+03
     2.772000000000E+05 5.215406417847E-08-2.950260079112E+00-4.097819328308E-08
     9.898349436042E-01 1.051875000000E+02-1.877349795040E-01-5.119498961967E-09
    -4.307322274405E-10 2.580000000000E+02 2.035000000000E+03 0.000000000000E+00
     3.120000000000E+00 0.000000000000E+00-2.561137080193E-09 0.000000000000E+00
     2.808000000000E+05 0.000000000000E+00 0.000000000000E+00 0.000000000000E+00
E24 2019 01 09 05 40 00 6.295456201769E-03-1.969624463527E-11 0.000000000000E+00
     8.200000000000E+01 3.325000000000E+01 2.471174362903E-09-1.691261411758E+00
     1.553446054459E-06 4.716444527730E-04 1.137331128120E-05 5.440620031357E+03
     2.796000000000E+05-8.940696716309E-08-2.944199399688E+00-7.823109626770E-08
     9.878387626267E-01 1.038750000000E+02 4.539706580887E-01-5.125927801182E-09
    -3.814444601214E-10 2.580000000000E+02 2.035000000000E+03 0.000000000000E+00
     3.120000000000E+00 0.000000000000E+00 4.260800778866E-08 0.000000000000E+00
     2.808000000000E+05 0.000000000000E+00 0.000000000000E+00 0.000000000000E+00
E25 2019 01 09 05 50 00 1.929292688146E-03-1.131184035330E-11 0.000000000000E+00
     1.920000000000E+02 3.178125000000E+01 2.511176029133E-09-5.802006804186E-01
     1.367181539536E-06 2.115758834407E-04 1.128017902374E-05 5.440629384995E+03
     2.802000000000E+05-6.519258022308E-08-2.950284740984E+00-2.048909664154E-08
     9.898396147016E-01 1.116250000000E+02-1.345675887682E+00-5.137714006411E-09
    -3.975165581602E-10 2.580000000000E+02 2.035000000000E+03 0.000000000000E+00
     3.120000000000E+00 0.000000000000E+00-1.396983861923E-09 0.000000000000E+00
     2.808000000000E+05 0.000000000000E+00 0.000000000000E+00 0.000000000000E+00
E26 2019 01 09 05 40 00 5.040592222940E-03-4.331468517194E-11 0.000000000000E+00
     8.200000000000E+01-7.084375000000E+01 3.264064532818E-09 1.097682575182E+00
    -3.237277269363E-06 3.256726777181E-04-3.688037395477E-07 5.440606958389E+03
     2.796000000000E+05-6.332993507385E-08-8.585858248945E-01 0.000000000000E+00
     9.782601675255E-01 3.588437500000E+02-2.062461861907E+00-5.982749205519E-09
    -1.039329006511E-10 2.580000000000E+02 2.035000000000E+03 0.000000000000E+00
     3.120000000000E+00 0.000000000000E+00 1.164153218269E-09 0.000000000000E+00
     2.808000000000E+05 0.000000000000E+00 0.000000000000E+00 0.000000000000E+00
E27 2019 01 09 04 50 00 5.534403608181E-04-7.716494110355E-12 0.000000000000E+00
     7.700000000000E+01 6.246875000000E+01 2.485817830005E-09 2.453835051211E+00
     2.736225724220E-06 2.051613992080E-04 1.121684908867E-05 5.440629009247E+03
     2.766000000000E+05 5.401670932770E-08-2.950241195765E+00 3.352761268616E-08
     9.898077640492E-01 1.110937500000E+02-8.991423086577E-01-5.111284334080E-09
    -3.725155167665E-10 2.580000000000E+02 2.035000000000E+03 0.000000000000E+00
     3.120000000000E+00 0.000000000000E+00-2.561137080193E-09 0.000000000000E+00
     2.808000000000E+05 0.000000000000E+00 0.000000000000E+00 0.000000000000E+00
E30 2019 01 09 05 10 00 5.203227687161E-03-3.042543994525E-11 0.000000000000E+00
     7.900000000000E+01 4.543750000000E+01 2.437958693622E-09 1.951813669697E+00
     2.220273017883E-06 2.992814406753E-04 1.101754605770E-05 5.440624128342E+03
     2.778000000000E+05-5.215406417847E-08-2.944245272411E+00 1.043081283569E-07
     9.878231942525E-01 1.170937500000E+02 5.172226773835E-01-5.179144303577E-09
    -3.710868858297E-10 2.580000000000E+02 2.035000000000E+03 0.000000000000E+00
     3.120000000000E+00 0.000000000000E+00-3.026798367500E-09 0.000000000000E+00
     2.808000000000E+05 0.000000000000E+00 0.000000000000E+00 0.000000000000E+00
E31 2019 01 09 05 00 00 9.373238426633E-04-9.748646334629E-12 0.000000000000E+00
     7.800000000000E+01 3.953125000000E+01 2.480460463992E-09 7.912795929312E-01
     1.899898052216E-06 2.495606895536E-04 1.170299947262E-05 5.440627204895E+03
     2.772000000000E+05 2.607703208923E-08-2.950292661223E+00-4.656612873077E-08
     9.898109210264E-01 9.928125000000E+01-1.518366874509E+00-5.128785063056E-09
    -4.385896975928E-10 2.580000000000E+02 2.035000000000E+03 0.000000000000E+00
     3.120000000000E+00 0.000000000000E+00-4.656612873077E-10 0.000000000000E+00
     2.808000000000E+05 0.000000000000E+00 0.000000000000E+00 0.000000000000E+00
E33 2019 01 09 05 40 00 8.478853269480E-04-1.421085471520E-14 0.000000000000E+00
     8.200000000000E+01-5.737500000000E+01 3.213348134562E-09-2.742887997666E-01
    -2.568587660789E-06 3.636756446213E-04-4.842877388000E-07 5.440592544556E+03
     2.796000000000E+05 3.725290298462E-09-8.675457182928E-01 3.725290298462E-09
     9.851387073928E-01 3.639062500000E+02-1.482197919058E+00-5.966319949746E-09
    -1.057186893220E-10 2.580000000000E+02 2.035000000000E+03 0.000000000000E+00
     3.120000000000E+00 5.600000000000E+01-8.381903171539E-09 0.000000000000E+00
     2.808000000000E+05 0.000000000000E+00 0.000000000000E+00 0.000000000000E+00
E36 2019 01 09 05 40 00 7.618075469509E-04-4.447997525858E-12 0.000000000000E+00
     8.200000000000E+01-4.759375000000E+01 3.151202688812E-09-2.522144041834E+00
    -2.179294824600E-06 3.317476948723E-04-3.743916749954E-07 5.440596000671E+03
     2.796000000000E+05-9.313225746155E-09-8.675202620553E-01 5.029141902924E-08
     9.851472537603E-01 3.597500000000E+02-1.588831277429E+00-5.849886528398E-09
    -5.857386840816E-11 2.580000000000E+02 2.035000000000E+03 0.000000000000E+00
     3.120000000000E+00 5.600000000000E+01 1.164153218269E-09 0.000000000000E+00
     2.808000000000E+05 0.000000000000E+00 0.000000000000E+00 0.000000000000E+00
E01 2019 01 09 05 40 00-5.168771604076E-04-8.171241461241E-12 0.000000000000E+00
     8.200000000000E+01 5.346875000000E+01 2.450816372054E-09 1.120656334326E+00
     2.488493919373E-06 1.126256538555E-04 1.153908669949E-05 5.440623191833E+03
     2.796000000000E+05 2.607703208923E-08-2.947665174040E+00-4.097819328308E-08
     9.902710804454E-01 1.066250000000E+02-7.824541724256E-01-5.100926759788E-09
    -4.468043254793E-10 5.210000000000E+02 2.035000000000E+03 0.000000000000E+00
     3.120000000000E+00 0.000000000000E+00-4.656612873077E-09-5.122274160385E-09
     2.808250000000E+05 0.000000000000E+00 0.000000000000E+00 0.000000000000E+00
E02 2019 01 09 05 40 00 4.256924148649E-05 1.591615728103E-12 0.000000000000E+00
     8.200000000000E+01 4.103125000000E+01 2.461888261814E-09-2.557113694118E+00
     1.925975084305E-06 2.679801546037E-04 1.147203147411E-05 5.440624498367E+03
     2.796000000000E+05-3.539025783539E-08-2.947698211119E+00 2.607703208923E-08
     9.902791191802E-01 1.097187500000E+02-2.479958111638E-01-5.135571060005E-09
    -3.589435228671E-10 5.210000000000E+02 2.035000000000E+03 0.000000000000E+00
     3.120000000000E+00 0.000000000000E+00-6.053596735001E-09-7.450580596924E-09
     2.808250000000E+05 0.000000000000E+00 0.000000000000E+00 0.000000000000E+00
E03 2019 01 09 03 40 00-1.201044651680E-04-4.249045559845E-12 0.000000000000E+00
     7.000000000000E+01 3.559375000000E+01 3.276922211249E-09-2.222273590066E+00
     1.691281795502E-06 2.611797535792E-04 8.825212717056E-06 5.440615056992E+03
     2.724000000000E+05-7.636845111847E-08 1.243048282819E+00-5.401670932770E-08
     9.523362482845E-01 1.487812500000E+02 6.153404130210E-01-5.529516040824E-09
     5.175215568501E-10 5.210000000000E+02 2.035000000000E+03 0.000000000000E+00
     3.120000000000E+00 0.000000000000E+00-1.862645149231E-09-2.095475792885E-09
     2.808250000000E+05 0.000000000000E+00 0.000000000000E+00 0.000000000000E+00
E04 2019 01 09 05 00 00-1.962454407476E-04-7.844391802792E-12 0.000000000000E+00
     7.800000000000E+01 1.250000000000E+01 3.203347718005E-09-7.495512181597E-01
     6.332993507385E-07 7.173686753958E-05 9.374693036079E-06 5.440614833832E+03
     2.772000000000E+05-2.235174179077E-08 1.243072106440E+00-1.303851604462E-08
     9.523821751347E-01 1.366250000000E+02 2.098400210266E+00-5.451298497035E-09
     5.439512291806E-10 5.210000000000E+02 2.035000000000E+03 0.000000000000E+00
     3.120000000000E+00 0.000000000000E+00-7.916241884232E-09-9.080395102501E-09
     2.808250000000E+05 0.000000000000E+00 0.000000000000E+00 0.000000000000E+00
